[{"OBJECT_NAME":"STARLINK-5108","OBJECT_ID":"2022-125AE","EPOCH":"2026-03-09T16:43:19.014240","MEAN_MOTION":15.08840032,"ECCENTRICITY":0.00012514,"INCLINATION":53.217,"RA_OF_ASC_NODE":214.0862,"ARG_OF_PERICENTER":104.8042,"MEAN_ANOMALY":255.3089,"EPHEMERIS_TYPE":0,"CLASSIFICATION_TYPE":"U","NORAD_CAT_ID":53992,"ELEMENT_SET_NO":999,"REV_AT_EPOCH":18945,"BSTAR":1.4438864e-5,"MEAN_MOTION_DOT":-5.8e-7,"MEAN_MOTION_DDOT":0},{"OBJECT_NAME":"CZ-6A DEB","OBJECT_ID":"2024-126C","EPOCH":"2026-03-09T22:45:09.534528","MEAN_MOTION":15.08339588,"ECCENTRICITY":0.00034995,"INCLINATION":97.8272,"RA_OF_ASC_NODE":88.0703,"ARG_OF_PERICENTER":249.9832,"MEAN_ANOMALY":110.1019,"EPHEMERIS_TYPE":0,"CLASSIFICATION_TYPE":"U","NORAD_CAT_ID":60213,"ELEMENT_SET_NO":999,"REV_AT_EPOCH":9177,"BSTAR":0.0010886629,"MEAN_MOTION_DOT":0.00016868,"MEAN_MOTION_DDOT":0}]
